{
  "norad_id": 62490,
  "name": "STARLINK-32332",
  "history": [
    {
      "epoch": "2026-03-28T13:02:27.421152",
      "apogee_km": 483.6479595133578,
      "perigee_km": 482.34983260182435,
      "latitude_deg": 33.144396215445404,
      "longitude_deg": 121.16380128008313,
      "semi_major_axis_km": 6861.135896057591,
      "eccentricity": 9.46e-05,
      "inclination_deg": 42.9997,
      "raan_deg": 182.612,
      "arg_perigee_deg": 272.5587,
      "mean_anomaly_deg": 87.5156,
      "mean_motion_rev_day": 15.27596765
    }
  ]
}