{"fetched_at":"2026-03-29T16:36:15Z","count":15609,"tles":[{"name":"STARLINK-32332","line1":"1 62490U 25003D   26087.54337293  .00033006  00000+0  12030-2 0  9999","line2":"2 62490  42.9997 182.6120 0000946 272.5587  87.5156 15.27596765 69536","category":"Starlink"}]}